IRIDIUM 33              
1 24946U 97051C   25064.42080745  .00000640  00000+0  21866-3 0  9999
2 24946  86.3941 186.6256 0009538  64.7571 295.4612 14.34792245437865
IRIDIUM 33 DEB          
1 33773U 97051L   25064.38604858  .00002189  00000+0  65544-3 0  9990
2 33773  86.4084 180.0913 0011048  18.2705 341.8890 14.42427694842767
IRIDIUM 33 DEB          
1 33775U 97051N   25064.36266045  .00003411  00000+0  10698-2 0  9990
2 33775  86.3709 169.9575 0013432  25.4275  44.6659 14.40308199840746
IRIDIUM 33 DEB          
1 33776U 97051P   25064.41508752  .00001783  00000+0  58745-3 0  9997
2 33776  86.4094 199.1661 0015596  50.2851  13.9005 14.37581556840251
IRIDIUM 33 DEB          
1 33777U 97051Q   25064.29206497  .00005694  00000+0  13744-2 0  9999
2 33777  86.3852 157.7460 0010745 140.2767 219.9228 14.52997430844299
IRIDIUM 33 DEB          
1 33850U 97051T   25064.47918769  .00002531  00000+0  78016-3 0  9994
2 33850  86.3466 151.4417 0011215  31.0525 340.1319 14.41075237840897
IRIDIUM 33 DEB          
1 33853U 97051W   25064.55985303  .00001982  00000+0  11469-2 0  9991
2 33853  85.9978 113.3739 0213599  21.8773 131.8293 13.97680960814025
IRIDIUM 33 DEB          
1 33859U 97051AC  25064.21602837  .00047165  00000+0  51482-2 0  9990
2 33859  86.3124 134.5911 0021656 270.8380  89.0363 14.87522122843082
IRIDIUM 33 DEB          
1 33860U 97051AD  25064.23409094  .00012968  00000+0  25685-2 0  9993
2 33860  86.3897 151.7187 0010624 211.4425 169.7345 14.62176955845878
IRIDIUM 33 DEB          
1 33862U 97051AF  25064.28329412  .00016497  00000+0  30611-2 0  9991
2 33862  86.4159 161.5717 0051737 316.8823  96.2219 14.64273113846839
IRIDIUM 33 DEB          
1 33864U 97051AH  25064.51321942  .00177402  00000+0  83551-2 0  9994
2 33864  86.2499  50.8583 0006521 108.0197  38.0259 15.18714816848811
IRIDIUM 33 DEB          
1 33866U 97051AK  25064.46549571  .00005460  00000+0  22729-2 0  9994
2 33866  86.3028 212.1945 0109427 346.5365  76.3364 14.23006528827922
IRIDIUM 33 DEB          
1 33867U 97051AL  25064.56267045  .00028516  00000+0  24821-2 0  9991
2 33867  86.3876 125.0451 0013001 353.3569   6.7487 14.96739995852407
IRIDIUM 33 DEB          
1 33870U 97051AP  25064.62036060  .00004600  00000+0  13392-2 0  9992
2 33870  86.3824 178.9246 0021625  44.3043  19.1326 14.43912814840635
IRIDIUM 33 DEB          
1 33874U 97051AT  25064.60281059  .00104298  00000+0  90550-2 0  9999
2 33874  86.2630 134.4523 0019776 192.7011 292.0124 14.96371688838142
IRIDIUM 33 DEB          
1 33881U 97051BA  25064.47745832  .00026619  00000+0  69002-2 0  9994
2 33881  86.3897 228.6809 0056406  37.8856  15.8847 14.48693631833999
IRIDIUM 33 DEB          
1 33884U 97051BD  25064.61794867  .00018693  00000+0  31279-2 0  9993
2 33884  86.3664 136.6337 0013668 199.4890 285.8106 14.69671719846913
IRIDIUM 33 DEB          
1 33886U 97051BF  25064.35449279  .00001222  00000+0  41680-3 0  9998
2 33886  86.3903 185.9673 0016049  91.6646 321.9232 14.35611246840007
IRIDIUM 33 DEB          
1 33887U 97051BG  25064.61600575  .00000662  00000+0  21742-3 0  9990
2 33887  86.3045 124.9373 0008565  87.1760  29.9688 14.36860148841139
IRIDIUM 33 DEB          
1 33953U 97051BN  25064.32855539  .00007377  00000+0  18146-2 0  9997
2 33953  86.3936 175.9140 0016182 326.6286  87.3445 14.52095665842017
IRIDIUM 33 DEB          
1 33960U 97051BV  25064.55424366  .00021465  00000+0  32112-2 0  9993
2 33960  86.2605  61.1343 0003563  62.0876  77.4012 14.74600451846959
IRIDIUM 33 DEB          
1 33966U 97051CB  25064.26619274  .00004077  00000+0  10924-2 0  9998
2 33966  86.3995 167.0567 0009177  78.7626 310.8008 14.48002582843527
IRIDIUM 33 DEB          
1 34071U 97051CE  25064.54799165  .00003445  00000+0  92923-3 0  9993
2 34071  86.3485 140.3112 0005681 348.0286  12.0781 14.47660927842496
IRIDIUM 33 DEB          
1 34077U 97051CL  25064.35198674  .00015191  00000+0  32212-2 0  9991
2 34077  86.3942 175.2211 0010947 256.3126 162.2980 14.59059467842079
IRIDIUM 33 DEB          
1 34079U 97051CN  25064.62191170  .00018385  00000+0  27404-2 0  9992
2 34079  86.3816 136.0529 0007459 215.7989 264.9395 14.74753518848079
IRIDIUM 33 DEB          
1 34088U 97051CX  25064.28047735  .00032589  00000+0  46638-2 0  9993
2 34088  86.3947 158.7672 0007900 148.8421 265.0155 14.76436503845811
IRIDIUM 33 DEB          
1 34091U 97051DA  25064.34853102  .00038266  00000+0  68679-2 0  9994
2 34091  86.3599 193.8570 0047507 205.9772 153.9057 14.65790154837120
IRIDIUM 33 DEB          
1 34097U 97051DG  25064.42042590  .00006129  00000+0  21915-2 0  9995
2 34097  86.1988 125.7507 0086556 196.4591 163.3791 14.31861319830757
IRIDIUM 33 DEB          
1 34106U 97051DR  25064.42190082  .00205005  00000+0  88198-2 0  9996
2 34106  86.3147 103.5602 0009083 143.7117 280.8342 15.21695974849553
IRIDIUM 33 DEB          
1 34145U 97051DY  25064.28289080  .00005353  00000+0  16756-2 0  9995
2 34145  86.2075  98.0470 0052906 304.8708  54.7522 14.39735255835709
IRIDIUM 33 DEB          
1 34146U 97051DZ  25064.58464240  .00003968  00000+0  10877-2 0  9990
2 34146  86.2811 114.1768 0031904  87.5485  69.5303 14.46622517840330
IRIDIUM 33 DEB          
1 34159U 97051EN  25064.57112102  .00002230  00000+0  73396-3 0  9997
2 34159  86.3580 168.4182 0030701 131.7591 228.6239 14.37539172839040
IRIDIUM 33 DEB          
1 34350U 97051ES  25064.61774594  .00001633  00000+0  46700-3 0  9999
2 34350  86.3276 125.1372 0020791   1.4097 118.9436 14.44415015842195
IRIDIUM 33 DEB          
1 34366U 97051FJ  25064.59762912  .00006997  00000+0  17724-2 0  9995
2 34366  86.3772 171.6041 0021058  12.6397  50.1453 14.50648972840872
IRIDIUM 33 DEB          
1 34375U 97051FT  25064.37651927  .00001418  00000+0  66034-3 0  9996
2 34375  86.4275 296.5207 0101930 304.9476 230.3731 14.17216374827118
IRIDIUM 33 DEB          
1 34376U 97051FU  25064.36593891  .00012087  00000+0  26984-2 0  9994
2 34376  86.3035 132.8052 0029453  57.0530 303.3504 14.56453555838880
IRIDIUM 33 DEB          
1 34486U 97051GB  25064.49156510  .00024127  00000+0  30576-2 0  9993
2 34486  86.4008 140.6669 0011702  57.1545 314.3204 14.81594100847899
IRIDIUM 33 DEB          
1 34487U 97051GC  25064.46424796  .00001133  00000+0  33328-3 0  9996
2 34487  86.3455 133.8645 0030328 348.0494  22.8772 14.42665650841782
IRIDIUM 33 DEB          
1 34488U 97051GD  25064.48620123  .00046547  00000+0  43739-2 0  9995
2 34488  86.3270  80.9023 0010680 329.0567  31.0031 14.93670321849863
IRIDIUM 33 DEB          
1 34492U 97051GH  25064.03877023  .00009380  00000+0  37318-2 0  9994
2 34492  86.4728  87.9716 0225141  63.3408 327.8936 14.15675502810458
IRIDIUM 33 DEB          
1 34497U 97051GN  25064.30552238  .00004130  00000+0  16576-2 0  9998
2 34497  86.2855 172.8664 0083253 166.5126 249.2843 14.26134789828561
IRIDIUM 33 DEB          
1 34503U 97051GU  25064.38075561  .00382474  00000+0  11552-1 0  9991
2 34503  86.2927  41.7020 0012935 112.1872 248.0752 15.32609400852527
IRIDIUM 33 DEB          
1 34508U 97051GZ  25064.41018961  .00005785  00000+0  19453-2 0  9997
2 34508  86.3738 221.9232 0066979  19.3298 341.0416 14.35736794832547
IRIDIUM 33 DEB          
1 34521U 97051HN  25064.24184562  .00009484  00000+0  20044-2 0  9992
2 34521  86.3853 154.4500 0005660 143.3645 216.7953 14.59238670843476
IRIDIUM 33 DEB          
1 34525U 97051HS  25064.49697520  .00002551  00000+0  77377-3 0  9996
2 34525  86.3799 167.1810 0002432 313.7119 168.8032 14.41900123840198
IRIDIUM 33 DEB          
1 34529U 97051HW  25064.24220200  .00001259  00000+0  39245-3 0  9996
2 34529  86.3702 155.7937 0007038  66.4531 293.7407 14.40146291840759
IRIDIUM 33 DEB          
1 34538U 97051JF  25063.46543089  .00003545  00000+0  10991-2 0  9998
2 34538  86.2769 129.3998 0037469 173.2280 247.5588 14.40517572836750
IRIDIUM 33 DEB          
1 34540U 97051JH  25064.28886968  .00013027  00000+0  22192-2 0  9990
2 34540  86.3103  75.9757 0023124  72.0647 299.6046 14.68775866849046
IRIDIUM 33 DEB          
1 34648U 97051JZ  25063.87502156  .00009646  00000+0  48315-2 0  9994
2 34648  86.4001  35.4883 0201989 102.9178 259.4646 14.06541209809784
IRIDIUM 33 DEB          
1 34651U 97051KC  25063.80532713  .00007506  00000+0  30296-2 0  9995
2 34651  86.2802 260.4683 0155847  29.9995 331.0009 14.21415645818702
IRIDIUM 33 DEB          
1 34652U 97051KD  25064.55874222  .00005810  00000+0  12304-2 0  9999
2 34652  86.3283 105.3030 0031125 169.1634 344.1344 14.58798877845189
IRIDIUM 33 DEB          
1 34690U 97051KM  25064.23864124  .00006051  00000+0  14597-2 0  9990
2 34690  86.3852 159.5837 0010308 227.1562 162.4322 14.53043153839897
IRIDIUM 33 DEB          
1 34693U 97051KQ  25064.49602439  .00046781  00000+0  44959-2 0  9999
2 34693  86.3199  79.1667 0011737 343.7105 168.1876 14.92767749846642
IRIDIUM 33 DEB          
1 34696U 97051KT  25063.51590597  .00020538  00000+0  50562-2 0  9994
2 34696  86.1966 157.3456 0084887  46.6388 325.4173 14.49941341825502
IRIDIUM 33 DEB          
1 34702U 97051KZ  25064.35676408  .00136408  00000+0  65879-2 0  9992
2 34702  86.2872  31.5628 0018851 140.4168 219.8454 15.17901259852157
IRIDIUM 33 DEB          
1 34765U 97051LJ  25064.29559412  .00002323  00000+0  73859-3 0  9995
2 34765  86.3442 153.8566 0018384  73.3168 349.3629 14.39450229835494
IRIDIUM 33 DEB          
1 34775U 97051LU  25063.27582964  .00045734  00000+0  48265-2 0  9996
2 34775  86.3452 153.3275 0019882 181.5010 237.1991 14.88923926841104
IRIDIUM 33 DEB          
1 34833U 97051MH  25064.32275911  .00005728  00000+0  14709-2 0  9994
2 34833  86.4003 172.4223 0018416 325.8849  94.6209 14.50010734836196
IRIDIUM 33 DEB          
1 34870U 97051MQ  25064.32929605  .00014097  00000+0  23500-2 0  9999
2 34870  86.3093  82.6914 0023870  92.9919 328.6895 14.69716730847534
IRIDIUM 33 DEB          
1 34896U 97051MY  25060.35450150  .00009204  00000+0  17959-2 0  9995
2 34896  86.3257  94.7217 0031314 117.1282 253.9406 14.62560866841340
